{"type": "FeatureCollection", "features": [{"type": "Feature", "properties": {"norad_id": 24946, "name": "IRIDIUM 33", "group": "iridium-33-debris", "lat": 60.95972083303353, "lon": -119.62517362053691, "alt_km": 767.3895921301519, "timestamp": "2025-12-15T20:48:54.269367+00:00", "meta": {"OBJECT_NAME": "IRIDIUM 33", "OBJECT_ID": "1997-051C", "EPOCH": "2025-12-14T17:29:14.036352", "MEAN_MOTION": 14.35039008, "ECCENTRICITY": 0.00072638, "INCLINATION": 86.387, "RA_OF_ASC_NODE": 67.3869, "ARG_OF_PERICENTER": 193.371, "MEAN_ANOMALY": 166.7294, "EPHEMERIS_TYPE": 0, "CLASSIFICATION_TYPE": "U", "NORAD_CAT_ID": 24946, "ELEMENT_SET_NO": 999, "REV_AT_EPOCH": 47863, "BSTAR": 0.00013602476, "MEAN_MOTION_DOT": 4.07e-06, "MEAN_MOTION_DDOT": 0}, "tle": {"line1": "1 24946U 97051C   25348.72863468  .00000407  00000+0  13602-3 0  9998", "line2": "2 24946  86.3870  67.3869 0007263 193.3710 166.7294 14.35039008478636"}}, "geometry": {"type": "Point", "coordinates": [-119.62517362053691, 60.95972083303353]}}, {"type": "Feature", "properties": {"norad_id": 33773, "name": "IRIDIUM 33 DEB", "group": "iridium-33-debris", "lat": 11.488316409724957, "lon": -121.46874002879197, "alt_km": 741.4976394828582, "timestamp": "2025-12-15T20:48:54.269394+00:00", "meta": {"OBJECT_NAME": "IRIDIUM 33 DEB", "OBJECT_ID": "1997-051L", "EPOCH": "2025-12-14T17:24:53.377920", "MEAN_MOTION": 14.43261906, "ECCENTRICITY": 0.00126512, "INCLINATION": 86.4008, "RA_OF_ASC_NODE": 59.7479, "ARG_OF_PERICENTER": 140.5859, "MEAN_ANOMALY": 219.6265, "EPHEMERIS_TYPE": 0, "CLASSIFICATION_TYPE": "U", "NORAD_CAT_ID": 33773, "ELEMENT_SET_NO": 999, "REV_AT_EPOCH": 88376, "BSTAR": 0.00036765515, "MEAN_MOTION_DOT": 1.258e-05, "MEAN_MOTION_DDOT": 0}, "tle": {"line1": "1 33773U 97051L   25348.72561780  .00001258  00000+0  36766-3 0  9999", "line2": "2 33773  86.4008  59.7479 0012651 140.5859 219.6265 14.43261906883768"}}, "geometry": {"type": "Point", "coordinates": [-121.46874002879197, 11.488316409724957]}}, {"type": "Feature", "properties": {"norad_id": 33775, "name": "IRIDIUM 33 DEB", "group": "iridium-33-debris", "lat": -51.79506183800897, "lon": -127.1468847003544, "alt_km": 760.1213256957526, "timestamp": "2025-12-15T20:48:54.269409+00:00", "meta": {"OBJECT_NAME": "IRIDIUM 33 DEB", "OBJECT_ID": "1997-051N", "EPOCH": "2025-12-14T16:12:17.510688", "MEAN_MOTION": 14.41473003, "ECCENTRICITY": 0.00144956, "INCLINATION": 86.3636, "RA_OF_ASC_NODE": 48.7274, "ARG_OF_PERICENTER": 148.7238, "MEAN_ANOMALY": 20.7741, "EPHEMERIS_TYPE": 0, "CLASSIFICATION_TYPE": "U", "NORAD_CAT_ID": 33775, "ELEMENT_SET_NO": 999, "REV_AT_EPOCH": 88168, "BSTAR": 0.00037572543, "MEAN_MOTION_DOT": 1.24e-05, "MEAN_MOTION_DDOT": 0}, "tle": {"line1": "1 33775U 97051N   25348.67520267  .00001240  00000+0  37573-3 0  9998", "line2": "2 33775  86.3636  48.7274 0014495 148.7238  20.7741 14.41473003881686"}}, "geometry": {"type": "Point", "coordinates": [-127.1468847003544, -51.79506183800897]}}, {"type": "Feature", "properties": {"norad_id": 33776, "name": "IRIDIUM 33 DEB", "group": "iridium-33-debris", "lat": 64.58200629491549, "lon": 87.06724439424819, "alt_km": 762.5305268624306, "timestamp": "2025-12-15T20:48:54.269422+00:00", "meta": {"OBJECT_NAME": "IRIDIUM 33 DEB", "OBJECT_ID": "1997-051P", "EPOCH": "2025-12-14T20:01:35.700672", "MEAN_MOTION": 14.38238599, "ECCENTRICITY": 0.00145995, "INCLINATION": 86.4038, "RA_OF_ASC_NODE": 79.8963, "ARG_OF_PERICENTER": 183.4341, "MEAN_ANOMALY": 297.2093, "EPHEMERIS_TYPE": 0, "CLASSIFICATION_TYPE": "U", "NORAD_CAT_ID": 33776, "ELEMENT_SET_NO": 999, "REV_AT_EPOCH": 88112, "BSTAR": 0.00029974719, "MEAN_MOTION_DOT": 9.31e-06, "MEAN_MOTION_DDOT": 0}, "tle": {"line1": "1 33776U 97051P   25348.83444098  .00000931  00000+0  29975-3 0  9997", "line2": "2 33776  86.4038  79.8963 0014599 183.4341 297.2093 14.38238599881125"}}, "geometry": {"type": "Point", "coordinates": [87.06724439424819, 64.58200629491549]}}, {"type": "Feature", "properties": {"norad_id": 33777, "name": "IRIDIUM 33 DEB", "group": "iridium-33-debris", "lat": 48.04438168062019, "lon": 37.88268893100262, "alt_km": 706.7866026151396, "timestamp": "2025-12-15T20:48:54.269433+00:00", "meta": {"OBJECT_NAME": "IRIDIUM 33 DEB", "OBJECT_ID": "1997-051Q", "EPOCH": "2025-12-14T13:14:51.391680", "MEAN_MOTION": 14.55631673, "ECCENTRICITY": 0.0005272, "INCLINATION": 86.3789, "RA_OF_ASC_NODE": 34.4153, "ARG_OF_PERICENTER": 240.6943, "MEAN_ANOMALY": 119.3738, "EPHEMERIS_TYPE": 0, "CLASSIFICATION_TYPE": "U", "NORAD_CAT_ID": 33777, "ELEMENT_SET_NO": 999, "REV_AT_EPOCH": 88560, "BSTAR": 0.00079585405, "MEAN_MOTION_DOT": 3.493e-05, "MEAN_MOTION_DDOT": 0}, "tle": {"line1": "1 33777U 97051Q   25348.55198370  .00003493  00000+0  79585-3 0  9994", "line2": "2 33777  86.3789  34.4153 0005272 240.6943 119.3738 14.55631673885604"}}, "geometry": {"type": "Point", "coordinates": [37.88268893100262, 48.04438168062019]}}, {"type": "Feature", "properties": {"norad_id": 33850, "name": "IRIDIUM 33 DEB", "group": "iridium-33-debris", "lat": -40.34612468287532, "lon": -148.04959383747402, "alt_km": 754.8430368496438, "timestamp": "2025-12-15T20:48:54.269445+00:00", "meta": {"OBJECT_NAME": "IRIDIUM 33 DEB", "OBJECT_ID": "1997-051T", "EPOCH": "2025-12-14T16:04:32.270016", "MEAN_MOTION": 14.42150291, "ECCENTRICITY": 0.00124314, "INCLINATION": 86.3417, "RA_OF_ASC_NODE": 29.3498, "ARG_OF_PERICENTER": 155.1516, "MEAN_ANOMALY": 332.0237, "EPHEMERIS_TYPE": 0, "CLASSIFICATION_TYPE": "U", "NORAD_CAT_ID": 33850, "ELEMENT_SET_NO": 999, "REV_AT_EPOCH": 88180, "BSTAR": 0.00034667666, "MEAN_MOTION_DOT": 1.161e-05, "MEAN_MOTION_DDOT": 0}, "tle": {"line1": "1 33850U 97051T   25348.66981794  .00001161  00000+0  34668-3 0  9991", "line2": "2 33850  86.3417  29.3498 0012431 155.1516 332.0237 14.42150291881804"}}, "geometry": {"type": "Point", "coordinates": [-148.04959383747402, -40.34612468287532]}}, {"type": "Feature", "properties": {"norad_id": 33853, "name": "IRIDIUM 33 DEB", "group": "iridium-33-debris", "lat": 62.924927958964076, "lon": 160.57194016584836, "alt_km": 938.1824661178371, "timestamp": "2025-12-15T20:48:54.269457+00:00", "meta": {"OBJECT_NAME": "IRIDIUM 33 DEB", "OBJECT_ID": "1997-051W", "EPOCH": "2025-12-14T12:15:46.627776", "MEAN_MOTION": 13.99075602, "ECCENTRICITY": 0.02069984, "INCLINATION": 85.9995, "RA_OF_ASC_NODE": 349.0348, "ARG_OF_PERICENTER": 230.3282, "MEAN_ANOMALY": 261.3777, "EPHEMERIS_TYPE": 0, "CLASSIFICATION_TYPE": "U", "NORAD_CAT_ID": 33853, "ELEMENT_SET_NO": 999, "REV_AT_EPOCH": 85370, "BSTAR": 0.0020195005, "MEAN_MOTION_DOT": 3.527e-05, "MEAN_MOTION_DDOT": 0}, "tle": {"line1": "1 33853U 97051W   25348.51095634  .00003527  00000+0  20195-2 0  9994", "line2": "2 33853  85.9995 349.0348 0206998 230.3282 261.3777 13.99075602853702"}}, "geometry": {"type": "Point", "coordinates": [160.57194016584836, 62.924927958964076]}}, {"type": "Feature", "properties": {"norad_id": 33860, "name": "IRIDIUM 33 DEB", "group": "iridium-33-debris", "lat": 77.40994199681705, "lon": 42.30504004332087, "alt_km": 662.2505847629382, "timestamp": "2025-12-15T20:48:54.269468+00:00", "meta": {"OBJECT_NAME": "IRIDIUM 33 DEB", "OBJECT_ID": "1997-051AD", "EPOCH": "2025-12-14T14:05:54.709728", "MEAN_MOTION": 14.67398369, "ECCENTRICITY": 0.00071551, "INCLINATION": 86.3832, "RA_OF_ASC_NODE": 26.4201, "ARG_OF_PERICENTER": 351.4031, "MEAN_ANOMALY": 169.8353, "EPHEMERIS_TYPE": 0, "CLASSIFICATION_TYPE": "U", "NORAD_CAT_ID": 33860, "ELEMENT_SET_NO": 999, "REV_AT_EPOCH": 88749, "BSTAR": 0.00087762512, "MEAN_MOTION_DOT": 4.984e-05, "MEAN_MOTION_DDOT": 0}, "tle": {"line1": "1 33860U 97051AD  25348.58743877  .00004984  00000+0  87763-3 0  9991", "line2": "2 33860  86.3832  26.4201 0007155 351.4031 169.8353 14.67398369887499"}}, "geometry": {"type": "Point", "coordinates": [42.30504004332087, 77.40994199681705]}}, {"type": "Feature", "properties": {"norad_id": 33862, "name": "IRIDIUM 33 DEB", "group": "iridium-33-debris", "lat": 42.2772988222526, "lon": -147.1213633479554, "alt_km": 651.824151643289, "timestamp": "2025-12-15T20:48:54.269479+00:00", "meta": {"OBJECT_NAME": "IRIDIUM 33 DEB", "OBJECT_ID": "1997-051AF", "EPOCH": "2025-12-14T22:05:56.772672", "MEAN_MOTION": 14.69518836, "ECCENTRICITY": 0.00532404, "INCLINATION": 86.4094, "RA_OF_ASC_NODE": 36.5687, "ARG_OF_PERICENTER": 61.8952, "MEAN_ANOMALY": 111.0634, "EPHEMERIS_TYPE": 0, "CLASSIFICATION_TYPE": "U", "NORAD_CAT_ID": 33862, "ELEMENT_SET_NO": 999, "REV_AT_EPOCH": 88855, "BSTAR": 0.00087533333, "MEAN_MOTION_DOT": 5.329e-05, "MEAN_MOTION_DDOT": 0}, "tle": {"line1": "1 33862U 97051AF  25348.92079598  .00005329  00000+0  87533-3 0  9992", "line2": "2 33862  86.4094  36.5687 0053240  61.8952 111.0634 14.69518836888556"}}, "geometry": {"type": "Point", "coordinates": [-147.1213633479554, 42.2772988222526]}}, {"type": "Feature", "properties": {"norad_id": 33866, "name": "IRIDIUM 33 DEB", "group": "iridium-33-debris", "lat": 63.38772216376858, "lon": 99.13325731358675, "alt_km": 797.2538136996272, "timestamp": "2025-12-15T20:48:54.269490+00:00", "meta": {"OBJECT_NAME": "IRIDIUM 33 DEB", "OBJECT_ID": "1997-051AK", "EPOCH": "2025-12-14T18:15:50.446656", "MEAN_MOTION": 14.25283498, "ECCENTRICITY": 0.01146408, "INCLINATION": 86.2998, "RA_OF_ASC_NODE": 92.1804, "ARG_OF_PERICENTER": 154.9797, "MEAN_ANOMALY": 357.1372, "EPHEMERIS_TYPE": 0, "CLASSIFICATION_TYPE": "U", "NORAD_CAT_ID": 33866, "ELEMENT_SET_NO": 999, "REV_AT_EPOCH": 86839, "BSTAR": 0.00067922349, "MEAN_MOTION_DOT": 1.731e-05, "MEAN_MOTION_DDOT": 0}, "tle": {"line1": "1 33866U 97051AK  25348.76100054  .00001731  00000+0  67922-3 0  9993", "line2": "2 33866  86.2998  92.1804 0114640 154.9797 357.1372 14.25283498868390"}}, "geometry": {"type": "Point", "coordinates": [99.13325731358675, 63.38772216376858]}}]}